      2.10          N: GNSS NAV DATA                        RINEX VERSION / TYPE
fic2rin                                 04/25/2023 00:17:53 PGM / RUN BY / DATE
                                                            END OF HEADER
14 23  4 24 14  0  0.0  .350987538695D-04  .119371179608D-10  .000000000000D+00
     .227000000000D+03  .851562500000D+02  .468769526132D-08 -.270253373599D+01
     .443495810032D-05  .301320909057D-02  .923685729504D-05  .515367998314D+04
     .136800000000D+06 -.558793544769D-07  .815601055115D+00 -.149011611938D-07
     .949255777296D+00  .196937500000D+03 -.305487401220D+01 -.796104589523D-08
    -.150006248362D-09  .100000000000D+01  .225900000000D+04  .000000000000D+00
     .240000000000D+01  .000000000000D+00 -.791624188423D-08  .995000000000D+03
     .129600000000D+06  .400000000000D+01
22 23  4 24 14  0  0.0  .469842460006D-03  .670752342558D-11  .000000000000D+00
     .950000000000D+02 -.105625000000D+02  .476234122777D-08  .645332790827D+00
    -.631436705589D-06  .142825554358D-01  .671483576298D-05  .515361376953D+04
     .136800000000D+06 -.180676579475D-06 -.122735977671D+01  .000000000000D+00
     .962175694845D+00  .251062500000D+03 -.180924724264D+01 -.822569977627D-08
     .267868300647D-09  .100000000000D+01  .225900000000D+04  .000000000000D+00
     .340000000000D+01  .630000000000D+02 -.791624188423D-08  .950000000000D+02
     .129600000000D+06  .400000000000D+01
17 23  4 24 13 59 44.0  .712054315954D-03  .170530256582D-11  .000000000000D+00
     .320000000000D+02  .539375000000D+02  .437125350883D-08  .803150378780D+00
     .262819230556D-05  .135103682987D-01  .323355197906D-05  .515375281525D+04
     .136784000000D+06 -.195577740669D-06  .189331851725D+01 -.134110450745D-06
     .974410483971D+00  .328687500000D+03 -.141097870454D+01 -.835499087605D-08
    -.860750139413D-10  .100000000000D+01  .225900000000D+04  .000000000000D+00
     .240000000000D+01  .000000000000D+00 -.111758708954D-07  .320000000000D+02
     .131400000000D+06  .400000000000D+01
2  23  4 24 16  0  0.0 -.602859072387D-03  .375166564481D-11  .000000000000D+00
     .103000000000D+03 -.709375000000D+02  .419338895720D-08 -.209995360105D+01
    -.350922346115D-05  .174153430853D-01  .349804759026D-05  .515953346634D+04
     .144000000000D+06  .108033418655D-06  .279758836548D+01  .296160578728D-06
     .967551506244D+00  .311718750000D+03 -.129358254521D+01 -.784961268216D-08
    -.282868925483D-09  .100000000000D+01  .225900000000D+04  .000000000000D+00
     .340000000000D+01  .000000000000D+00 -.176951289177D-07  .103000000000D+03
     .136800000000D+06  .400000000000D+01
1  23  4 24 16  0  0.0  .190567225218D-03 -.318323145621D-11  .000000000000D+00
     .520000000000D+02 -.704375000000D+02  .395945064130D-08 -.296463099049D+00
    -.358559191227D-05  .127489959123D-01  .369921326637D-05  .515364720345D+04
     .144000000000D+06 -.484287738800D-07  .289568847296D+01  .214204192162D-06
     .990068069841D+00  .320593750000D+03  .951683965297D+00 -.816498296146D-08
    -.277868717205D-09  .100000000000D+01  .225900000000D+04  .000000000000D+00
     .240000000000D+01  .000000000000D+00  .465661287308D-08  .520000000000D+02
     .136800000000D+06  .400000000000D+01
3  23  4 24 16  0  0.0 -.321278814226D-03  .943600753089D-11  .000000000000D+00
     .600000000000D+02 -.810625000000D+02  .378694345568D-08 -.144508821951D+01
    -.421889126301D-05  .471007870510D-02  .889040529728D-05  .515368645668D+04
     .144000000000D+06  .162050127983D-06 -.235720560211D+01  .409781932831D-07
     .978528029289D+00  .217750000000D+03  .100872613141D+01 -.759317342901D-08
     .167149819604D-09  .100000000000D+01  .225900000000D+04  .000000000000D+00
     .240000000000D+01  .000000000000D+00  .186264514923D-08  .600000000000D+02
     .136800000000D+06  .400000000000D+01
4  23  4 24 16  0  0.0  .247918069363D-04  .943600753089D-11  .000000000000D+00
     .200000000000D+03 -.119687500000D+02  .457626204825D-08  .141741464000D+01
    -.592321157455D-06  .235513190273D-02  .678375363350D-05  .515367544556D+04
     .144000000000D+06 -.353902578354D-07 -.127593940500D+01  .353902578354D-07
     .962276485512D+00  .250062500000D+03 -.297842257608D+01 -.788747140199D-08
     .322870591713D-09  .100000000000D+01  .225900000000D+04  .000000000000D+00
     .240000000000D+01  .000000000000D+00 -.465661287308D-08  .456000000000D+03
     .136800000000D+06  .400000000000D+01
10 23  4 24 16  0  0.0 -.341953709722D-04 -.159161572810D-11  .000000000000D+00
     .230000000000D+02 -.730312500000D+02  .364372320427D-08 -.240045374835D+01
    -.382214784622D-05  .846323929727D-02  .984221696854D-05  .515369263268D+04
     .144000000000D+06 -.409781932831D-07 -.235986342876D+01 -.726431608200D-07
     .978271598767D+00  .197593750000D+03 -.242874193485D+01 -.741995192792D-08
     .326442169055D-09  .100000000000D+01  .225900000000D+04  .000000000000D+00
     .240000000000D+01  .000000000000D+00  .232830643654D-08  .230000000000D+02
     .136800000000D+06  .400000000000D+01
6  23  4 24 16  0  0.0  .587671063840D-03  .795807864051D-12  .000000000000D+00
     .200000000000D+02 -.687500000000D+02  .382515933324D-08 -.110939488458D+00
    -.361353158951D-05  .284312083386D-02  .402145087719D-05  .515365223885D+04
     .144000000000D+06  .372529029846D-07  .288737048607D+01 -.670552253723D-07
     .989289026465D+00  .319125000000D+03 -.758727389367D+00 -.788354266691D-08
    -.262510934634D-09  .100000000000D+01  .225900000000D+04  .000000000000D+00
     .240000000000D+01  .000000000000D+00  .372529029846D-08  .200000000000D+02
     .136800000000D+06  .400000000000D+01
5  23  4 24 16  0  0.0 -.124645419419D-03 -.147792889038D-11  .000000000000D+00
     .760000000000D+02 -.654062500000D+02  .407588406265D-08  .230937280667D+01
    -.350177288055D-05  .587258627638D-02  .870600342751D-05  .515365940857D+04
     .144000000000D+06  .875443220139D-07 -.240334370352D+01 -.931322574615D-07
     .965584836713D+00  .215375000000D+03  .113407632116D+01 -.772532179066D-08
     .223223583873D-09  .100000000000D+01  .225900000000D+04  .000000000000D+00
     .240000000000D+01  .000000000000D+00 -.111758708954D-07  .760000000000D+02
     .136800000000D+06  .400000000000D+01
31 23  4 24 16  0  0.0 -.214690808207D-03 -.795807864051D-12  .000000000000D+00
     .600000000000D+01  .718750000000D+00  .477662753714D-08 -.170919122540D+01
    -.238418579102D-06  .105934641324D-01  .748783349991D-05  .515419771957D+04
     .144000000000D+06  .111758708954D-06 -.240701704546D+00 -.931322574615D-07
     .954803088044D+00  .225250000000D+03  .525168658834D+00 -.789461455667D-08
    -.109290266664D-09  .100000000000D+01  .225900000000D+04  .000000000000D+00
     .240000000000D+01  .000000000000D+00 -.135041773319D-07  .600000000000D+01
     .136800000000D+06  .400000000000D+01
24 23  4 24 16  0  0.0 -.164078082889D-03 -.143245415529D-10  .000000000000D+00
     .340000000000D+02 -.806250000000D+01  .543236913712D-08 -.539049617009D-02
    -.393018126488D-06  .138114989968D-01  .734440982342D-05  .515365032196D+04
     .144000000000D+06 -.353902578354D-07 -.350613121472D+00  .173225998878D-06
     .934215229791D+00  .228812500000D+03  .890575627158D+00 -.855142762986D-08
    -.242867259253D-09  .100000000000D+01  .225900000000D+04  .000000000000D+00
     .240000000000D+01  .000000000000D+00  .232830643654D-08  .340000000000D+02
     .136800000000D+06  .400000000000D+01
16 23  4 24 16  0  0.0 -.506411772221D-03  .295585778076D-11  .000000000000D+00
     .390000000000D+02  .102375000000D+03  .424981987920D-08  .277604870639D+01
     .508502125740D-05  .133590435144D-01  .894069671631D-05  .515359357262D+04
     .144000000000D+06 -.745058059692D-07  .871984805690D+00 -.212341547012D-06
     .965571491974D+00  .209375000000D+03  .786999931420D+00 -.756174354840D-08
    -.148220459691D-09  .100000000000D+01  .225900000000D+04  .000000000000D+00
     .240000000000D+01  .000000000000D+00 -.102445483208D-07  .390000000000D+02
     .136800000000D+06  .400000000000D+01
8  23  4 24 16  0  0.0 -.119292642921D-03 -.181898940355D-11  .000000000000D+00
     .950000000000D+02  .896562500000D+02  .478805658463D-08  .189829618379D+01
     .475347042084D-05  .844799424522D-02  .334717333317D-05  .515368912888D+04
     .144000000000D+06 -.987201929092D-07  .180468236477D+01  .173225998878D-06
     .958851993246D+00  .316781250000D+03  .258642103859D+00 -.835177645644D-08
    -.210723063176D-10  .100000000000D+01  .225900000000D+04  .000000000000D+00
     .340000000000D+01  .000000000000D+00  .512227416039D-08  .950000000000D+02
     .136800000000D+06  .400000000000D+01
30 23  4 24 16  0  0.0 -.520749948919D-03  .193267624127D-11  .000000000000D+00
     .260000000000D+02 -.278125000000D+01  .526164774018D-08 -.105197256457D+01
    -.968575477600D-07  .641479936894D-02  .702217221260D-05  .515359933472D+04
     .144000000000D+06  .111758708954D-06 -.253930455806D+00  .260770320892D-07
     .935829341917D+00  .226000000000D+03 -.260366959761D+01 -.825462955274D-08
    -.158935191717D-09  .100000000000D+01  .225900000000D+04  .000000000000D+00
     .240000000000D+01  .000000000000D+00  .372529029846D-08  .260000000000D+02
     .136800000000D+06  .400000000000D+01
27 23  4 24 16  0  0.0  .517871230841D-04 -.829913915368D-11  .000000000000D+00
     .290000000000D+02  .828437500000D+02  .455876131928D-08  .191996001976D+01
     .409781932831D-05  .115641446318D-01  .332482159138D-05  .515366770172D+04
     .144000000000D+06 -.294297933578D-06  .182776210794D+01 -.800937414169D-07
     .967731992299D+00  .321906250000D+03  .729198820961D+00 -.821712799065D-08
     .267868300647D-10  .100000000000D+01  .225900000000D+04  .000000000000D+00
     .240000000000D+01  .000000000000D+00  .186264514923D-08  .290000000000D+02
     .136800000000D+06  .400000000000D+01
